[{"OBJECT_NAME":"OBJECT B","OBJECT_ID":"2024-110B","EPOCH":"2026-03-09T22:35:04.670592","MEAN_MOTION":15.20929558,"ECCENTRICITY":0.00104067,"INCLINATION":97.5691,"RA_OF_ASC_NODE":164.2888,"ARG_OF_PERICENTER":231.2544,"MEAN_ANOMALY":128.7762,"EPHEMERIS_TYPE":0,"CLASSIFICATION_TYPE":"U","NORAD_CAT_ID":60013,"ELEMENT_SET_NO":999,"REV_AT_EPOCH":9709,"BSTAR":0.00046906092,"MEAN_MOTION_DOT":0.00010329,"MEAN_MOTION_DDOT":0},{"OBJECT_NAME":"MERCURY ONE (M1)","OBJECT_ID":"2025-276CE","EPOCH":"2026-03-09T17:44:34.856448","MEAN_MOTION":15.18699342,"ECCENTRICITY":0.0001642,"INCLINATION":97.4266,"RA_OF_ASC_NODE":144.005,"ARG_OF_PERICENTER":0.6072,"MEAN_ANOMALY":359.5164,"EPHEMERIS_TYPE":0,"CLASSIFICATION_TYPE":"U","NORAD_CAT_ID":66742,"ELEMENT_SET_NO":999,"REV_AT_EPOCH":1532,"BSTAR":0.00030142011,"MEAN_MOTION_DOT":6.187e-5,"MEAN_MOTION_DDOT":0}]
